COSMOS 2487             
1 39194U 13032A   21189.17236952  .00006729  00000-0  14399-3 0  9994
2 39194  74.7092 321.2181 0002626 318.1767  41.9247 15.44937878449554
IRIS                    
1 39197U 13033A   21189.22355571  .00000121  00000-0  23488-4 0  9993
2 39197  97.9659  13.2963 0028910  63.8406 296.5773 14.78870929433113
IRNSS-1A                
1 39199U 13034A   21188.81115446  .00000065  00000-0  00000+0 0  9992
2 39199  31.6703  90.6939 0018238 181.6930   0.7248  1.00278272 29549
SJ-11-05                
1 39202U 13035A   21189.12059837  .00000080  00000-0  25862-4 0  9999
2 39202  98.1478 353.7790 0012156 119.3937 240.8471 14.60947110425388
MUOS-2                  
1 39206U 13036A   21189.25419524  .00000074  00000-0  00000+0 0  9996
2 39206   2.5435  10.6647 0055087 175.8203  14.4379  1.00274179 29208
SHIYAN 7 (SY-7)         
1 39208U 13037A   21188.91003735  .00000049  00000-0  16837-4 0  9996
2 39208  98.0152 188.7218 0009685 122.8755 237.3384 14.68448715426989
CHUANGXIN-3 (CX-3)      
1 39209U 13037B   21189.12086448  .00000157  00000-0  35368-4 0  9993
2 39209  98.0188 188.9807 0005880 112.3988 247.7843 14.68526188426986
SHIJIAN-15 (SJ-15)      
1 39210U 13037C   21188.90802789  .00000058  00000-0  18478-4 0  9997
2 39210  98.0250 187.7094 0008094 115.9927 244.2112 14.67777941429242
ALPHASAT                
1 39215U 13038A   21188.80518726  .00000144  00000-0  00000-0 0  9991
2 39215   2.5907  16.7615 0001710 101.2135 122.7217  1.00270843 25917
INSAT-3D                
1 39216U 13038B   21188.81668410 -.00000147  00000-0  00000-0 0  9993
2 39216   0.0225 291.9914 0001325 205.3691 164.7942  1.00272547 28993
WGS F6 (USA 244)        
1 39222U 13041A   21188.70155098  .00000099  00000-0  00000-0 0  9990
2 39222   0.0180   4.4462 0000340 214.1979 184.6073  1.00273171 27942
ARIRANG-5 (KOMPSAT-5)   
1 39227U 13042A   21189.15158874 -.00000132  00000-0 -51049-5 0  9995
2 39227  97.6270  14.2020 0001353  90.9875  47.1443 15.04510244432519
ES'HAIL 1               
1 39233U 13044A   21189.15882618  .00000153  00000-0  00000+0 0  9990
2 39233   0.0459   6.5382 0001676  94.7674 267.6860  1.00270225 28803
GSAT-7                  
1 39234U 13044B   21189.10218300 -.00000066  00000-0  00000+0 0  9991
2 39234   0.0168  35.7552 0005644 221.6470 139.6772  1.00270403 28806
AMOS-4                  
1 39237U 13045A   21189.07618937  .00000019  00000-0  00000+0 0  9998
2 39237   0.0272 315.6544 0002173 129.1303 293.8530  1.00268414 28799
YAOGAN 17A              
1 39239U 13046A   21188.94824226 -.00000213  00000-0 -16826-3 0  9991
2 39239  63.4028  58.4895 0264945   5.5018 354.8820 13.45208616385539
YAOGAN 17B              
1 39240U 13046B   21188.94851498 -.00000298  00000-0 -28521-3 0  9992
2 39240  63.4034  58.6752 0264909   5.2465 355.1239 13.45205098385534
YAOGAN 17C              
1 39241U 13046C   21189.17130353 -.00000072  00000-0  24980-4 0  9994
2 39241  63.4035  57.1615 0265663   5.2461 355.1252 13.45208802385588
GONETS-M 5              
1 39249U 13048A   21189.21505893  .00000010  00000-0  25163-5 0  9990
2 39249  82.4837  28.5865 0015587 190.3202 169.7564 12.42883394354811
GONETS-M 6              
1 39250U 13048B   21188.60021080  .00000011  00000-0  11537-4 0  9995
2 39250  82.4865  29.6377 0017775 223.4382 136.5296 12.42950536354752
GONETS-M 7              
1 39251U 13048C   21189.19071688  .00000019  00000-0  65362-4 0  9993
2 39251  82.4900  30.5353 0015581 185.8840 174.2062 12.42880325354793
HISAKI (SPRINT-A)       
1 39253U 13049A   21189.22073250  .00000065  00000-0 -49809-6 0  9999
2 39253  29.7211  34.0073 0137062 147.8380 213.0637 13.55248536387410
AEHF-3 (USA 246)        
1 39256U 13050A   21188.84362748 -.00000346  00000-0  00000-0 0  9990
2 39256   0.9509  58.5697 0004926  33.5979 248.6575  1.00271708 27560
FENGYUN 3C              
1 39260U 13052A   21189.12348126 -.00000004  00000-0  18727-4 0  9993
2 39260  98.4957 228.8870 0010849 180.4615 179.6553 14.15871759403197
CASSIOPE                
1 39265U 13055A   21188.83365534  .00002632  00000-0  73879-4 0  9997
2 39265  80.9680 270.6706 0647344 253.9613  98.9391 14.32356206402910
POPACS 1                
1 39268U 13055D   21188.45613051  .00007762  00000-0  20584-3 0  9991
2 39268  80.9995 248.0696 0602796 155.6215 207.4809 14.42916204404911
POPACS 2                
1 39269U 13055E   21188.61232210  .00001522  00000-0  43374-4 0  9995
2 39269  81.0147 295.2708 0666678 277.9845  74.6243 14.27895503400909
POPACS 3                
1 39270U 13055F   21188.62544285  .00001577  00000-0  48030-4 0  9990
2 39270  81.0165 322.4861 0703036 355.5468   3.9645 14.18536829379705
ASTRA 2E                
1 39285U 13056A   21188.80597240  .00000161  00000-0  00000-0 0  9995
2 39285   0.0655 337.3651 0002985 126.4905 140.7056  1.00270657 28342
SHIJIAN-16 (SJ-16)      
1 39358U 13057A   21189.05584544  .00000117  00000-0  16602-4 0  9998
2 39358  74.9737 153.5644 0020130 266.1895  93.6968 14.85808838417846
FM-6                    
1 39360U 13058A   21188.59209584 -.00000006  00000-0  00000-0 0  9997
2 39360   0.0307 288.1830 0000561  58.3657  36.2019  1.00269689 27954
RADUGA-1M 3             
1 39375U 13062A   21188.35535594  .00000165  00000-0  00000-0 0  9990
2 39375   1.3730  93.7094 0001069 317.3311  37.3776  1.00274684 28016
STPSAT-3                
1 39380U 13064A   21188.79746902  .00001286  00000-0  38699-4 0  9997
2 39380  40.5003 303.6258 0004185 300.4289  59.6112 15.38765182426134
YAOGAN 19               
1 39410U 13065A   21189.21299192 -.00000029  00000-0  34570-4 0  9993
2 39410 100.1135 227.9148 0007777 291.8011  68.2312 13.15424388366357
APRIZESAT 7             
1 39416U 13066A   21188.91607021  .00000123  00000-0  20620-4 0  9995
2 39416  97.5377 182.1831 0042377  54.7196 305.7972 14.84088087412932
ZACUBE-1 (TSHEPISOSAT)  
1 39417U 13066B   21188.91459549  .00000326  00000-0  46603-4 0  9990
2 39417  97.5933 172.1822 0060203  93.9344 266.8755 14.81536525412105
SKYSAT-A                
1 39418U 13066C   21188.75850752  .00000830  00000-0  72774-4 0  9992
2 39418  97.5910 265.1164 0019895 348.1243  11.9509 14.99184059417007
DUBAISAT-2              
1 39419U 13066D   21189.11154827 -.00000137  00000-0 -77336-5 0  9996
2 39419  97.4892 232.7367 0013998   1.4835 358.6409 14.94339960415764
OPTOS                   
1 39420U 13066E   21188.80685884  .00000308  00000-0  61785-4 0  9993
2 39420  97.8105 119.9738 0137330   7.9041 352.4280 14.62602273406889
STSAT-3                 
1 39422U 13066G   21188.80892658  .00000484  00000-0  55463-4 0  9995
2 39422  97.4783 207.5784 0022762 354.9801   5.1199 14.89979790414515
WNISAT-1                
1 39423U 13066H   21189.05000151  .00000148  00000-0  38398-4 0  9998
2 39423  97.7928  90.1156 0175786 132.6015 229.0163 14.53229571404425
APRIZESAT 8             
1 39425U 13066K   21188.90288002  .00000099  00000-0  18832-4 0  9992
2 39425  97.5820 172.8051 0053387  89.6510 271.0821 14.81290065411952
TRITON-1                
1 39427U 13066M   21189.10170712  .00000230  00000-0  44821-4 0  9999
2 39427  97.7758 135.8727 0111833 285.3575  73.5296 14.68259390408433
DELFI-N3XT              
1 39428U 13066N   21189.07134334  .00000432  00000-0  76294-4 0  9999
2 39428  97.7804 134.3167 0118390 298.6170  60.3168 14.68036966408176
GOMX-1                  
1 39430U 13066Q   21189.09811020  .00000332  00000-0  68314-4 0  9991
2 39430  97.8131 110.9815 0151878  50.1133 311.3310 14.59630124406050
FIRST-MOVE              
1 39439U 13066Z   21189.20298093  .00000736  00000-0  94247-4 0  9994
2 39439  97.5983 173.9608 0066332  90.7740 270.1075 14.82644312412118
CUBEBUG-2 (LO-74)       
1 39440U 13066AA  21188.92188094  .00000233  00000-0  39104-4 0  9996
2 39440  97.6771 157.2584 0080002 168.0382 192.2753 14.76262527409441
NEE-02 KRYSAOR          
1 39441U 13066AB  21188.86277193  .00000142  00000-0  27217-4 0  9990
2 39441  97.6870 154.5360 0081362 179.4552 180.6761 14.75196927410383
FUNCUBE-1 (AO-73)       
1 39444U 13066AE  21188.88620001  .00000431  00000-0  58374-4 0  9994
2 39444  97.5837 174.5232 0059261  84.5226 276.2744 14.82448996410461
UWE-3                   
1 39446U 13066AG  21189.19782522  .00000266  00000-0  41362-4 0  9993
2 39446  97.6376 164.4297 0070804 130.7922 229.9462 14.78801823410160
SWARM B                 
1 39451U 13067A   21188.91209078  .00000502  00000-0  20411-4 0  9994
2 39451  87.7558 164.5442 0002998 113.8094 246.3466 15.22054830408535
SWARM A                 
1 39452U 13067B   21188.88406903  .00001738  00000-0  35024-4 0  9995
2 39452  87.3607 350.3134 0002452  76.3334 283.8197 15.45734242428698
SWARM C                 
1 39453U 13067C   21188.88401703  .00001715  00000-0  34542-4 0  9998
2 39453  87.3460 350.4863 0002448  76.3293 283.8238 15.45732832428650
SHIYAN 5 (SY-5)         
1 39455U 13068A   21189.08037554  .00000021  00000-0  19107-4 0  9992
2 39455  98.2154 109.3815 0015322  26.1998 333.9971 14.41925731401414
SES-8                   
1 39460U 13071A   21188.81921394 -.00000259  00000-0  00000-0 0  9998
2 39460   0.0581 252.8824 0002639 213.5633 209.4548  1.00271095 26344
AEROCUBE 5A             
1 39465U 13072D   21188.88020257  .00005588  00000-0  45082-3 0  9990
2 39465 120.4904 124.1051 0240494 281.5620  75.8531 14.81716791 98371
AEROCUBE 5B             
1 39466U 13072E   21188.81247221  .00007581  00000-0  49567-3 0  9993
2 39466 120.4639 182.6435 0206182 295.2445  62.7378 14.93225623 98977
INMARSAT 5-F1           
1 39476U 13073A   21189.17162281  .00000039  00000-0  00000+0 0  9993
2 39476   0.0037 107.7407 0000321 154.5298 148.4452  1.00269435 27835
TKSAT-1 (TUPAC KATARI)  
1 39481U 13075A   21189.14178810 -.00000184  00000-0  00000+0 0  9995
2 39481   0.0419 178.0541 0002259 273.4361 158.6788  1.00272368 27743
